full_name,e,q,i,om,w,ad,tp_cal,per_y,class,data_arc,condition_code,n_obs_used,two_body,A1,A2,A3,DT
"  167P/CINEOS",.2699551843085261,11.78354759801997,19.12720756917645,295.8374388815109,343.6495125063299,20.49816263331423,20010409.9553237,64.8482127275767,CTc,3416,3,91,,,,,
"  168P/Hergenrother",.6094745694255875,1.415281124666593,21.92937147437639,356.4777070774762,13.91898130930214,5.832805754515116,20121001.9332499,6.89919300203342,JFc,5193,0,3368,,2.645935917039714E-8,2.372866913427983E-9,-1.318022150370368E-9,
"  169P/NEAT",.7668594528813818,.6071749765626839,11.30248657910837,176.2132135046318,217.9787791565537,4.601485499418468,20091130.5043565,4.2029312146944,JFc,11390,0,1213,,,,,
"  170P/Christensen",.3041235958760041,2.928553746931559,10.12740142886888,143.0126416009267,225.3826675493708,5.488325255075039,20060126.5526192,8.63355847268231,JFc,3535,0,264,,,,,
"  171P/Spahr",.5020210572590079,1.771332348465658,21.93636624712738,101.7081664638199,347.1878637277071,5.34275299303827,20190113.7581022,6.70875319105604,JFc,4969,1,632,,8.733649604812487E-9,-1.946692217729362E-9,,
"  172P/Yeung",.3631672288766847,2.242127399345619,11.5223958075643,39.89278570832835,179.4760655449643,4.799367639895875,20081013.9426477,6.6063339769537,JFc,9561,0,576,,,,,
"  173P/Mueller 5",.2609426287617989,4.214135573181579,16.49427379360109,100.5620500199727,29.76230084701596,7.189946808464397,20080517.8873670,13.6161312066354,JFc,10035,0,767,,,,,
"  175P/Hergenrother",.4221748429689615,2.01593895077141,6.093925149595735,126.4355345436683,51.13955502758102,4.961739076020081,20130526.2009710,6.51672804466942,JFc,6947,0,846,,6.792408806467403E-9,8.745160712510438E-11,,
"  177P/Barnard",.9544420406541483,1.107271122647026,31.21645855802596,272.0677211295935,60.45355087098523,47.50206689625827,20060828.6832418,119.823711847319,HTC,42903,0,1702,,,,,
"  178P/Hug-Bell",.4716004271612915,1.942466642631861,10.96355690847269,103.6321984508248,296.7587117498244,5.409797600113051,20060706.7701944,7.04847022982839,JFc,7294,0,657,,,-2.126421574315704E-10,,
"  179P/Jedicke",.3073410789337982,4.081770167417342,19.88555991544916,115.8804248904036,295.7053975964394,7.704031020660394,20071204.6870698,14.3054615690836,JFc,5217,0,225,,,,,
"  180P/NEAT",.3555557371408392,2.48132678184532,16.88504050722502,84.65130100818102,95.30370207650452,5.219344710943184,20080525.5637863,7.55537638220961,JFc,22332,0,776,,-1.462411030420332E-8,6.959344482443199E-10,,
"  181P/Shoemaker-Levy 6",.7073228278805144,1.123593041258743,16.98117916666919,37.6794577153227,333.7988485602352,6.554443705659363,20140610.3258330,7.52208935718543,JFc,8252,2,88,,-2.912547448601831E-9,-8.638449566027108E-11,,
"  182P/LONEOS",.6663423299937125,.9780224592284675,16.90929664735519,75.10006348979451,51.4338425706135,4.884408092480639,20070205.8329705,5.01856756234231,JFc,3819,0,199,,,,,
"  183P/Korlevic-Juric",.1349564338935371,3.888045850339053,18.73885486899616,5.842822886098768,160.9022197541524,5.101202790256101,20080503.4428013,9.52902131474933,JFc,23871,0,466,,,,,
"  184P/Lovas 2",.6046976282855343,1.39345277642604,1.550078821224515,277.8633144548462,77.9121958715923,5.656607512271429,20130728.1100179,6.61839152342294,JFc,12265,0,270,,,,,
"  185P/Petriew",.6993345995045035,.9319757108506322,14.0071028125114,214.0912549894404,181.9391939260816,5.267445368626664,20120813.5513706,5.45745184458728,JFc,4468,0,735,,,1.474775215645868E-10,,
"  186P/Garradd",.1276361723597143,4.314847725153118,28.59554092758271,327.6609711380141,286.9696698250526,5.577464607018275,20080527.6267307,11.000437014928,JFc,16458,0,343,,,,,
"  187P/LINEAR",.1732844397672385,3.71323406638951,13.65988735880536,111.771121429588,134.554984465711,5.269865429993623,20081021.7576754,9.51924541909039,JFc,7380,0,293,,,,,
"  188P/LINEAR-Mueller",.4148529023488451,2.565145710223482,10.51135701353678,358.9814968959161,26.77145035596338,6.20237862859751,20170217.0428473,9.17864723868602,JFc,3993,0,1150,,-2.078447097377806E-8,5.199766322802091E-8,,
"  189P/NEAT",.5976669763900531,1.173775393695276,20.40139174336421,282.1994634177981,15.30160545818737,4.661069497551958,20070725.9352058,4.98318696882215,JFc,5573,0,1451,,-3.63195907218592E-10,-4.917098761653614E-11,,
"  190P/Mueller",.5207455917476924,2.031923755973765,2.189852338234577,336.1151284856024,49.73911796742881,6.447596603092149,20070708.2090879,8.7301185182217,JFc,6716,0,330,,,,,
"  191P/McNaught",.4203221793231565,2.047668010262542,8.761194673832481,106.5267628196147,274.1717859745949,5.017180556383129,20070913.1521490,6.63922664762918,JFc,7260,0,673,,7.11087351048708E-9,-7.287424569676625E-11,-3.29959650374214E-10,
"  192P/Shoemaker-Levy 1",.772126286309046,1.526435897381264,24.38729278371501,51.72674724291831,310.8321766153857,11.87077322039737,20071219.2931056,17.3374297076236,JFc,6324,0,136,,,,,
"  193P/LINEAR-NEAT",.4032837253409572,2.122177060098335,10.84020845732539,336.0715547646831,7.953758217470965,4.990674223573872,20080216.0505261,6.70700764753719,JFc,4901,1,343,,1.84227807174211E-8,-1.599664159541311E-9,,
"  194P/LINEAR",.5755808395443396,1.697713555806843,11.13800510665402,351.9937652644215,130.711455746716,6.302460394795018,20160302.4425143,8.00041202495453,JFc,5940,2,198,,7.27644840784116E-10,-1.720461369036189E-10,,
"  195P/Hill",.315047798798942,4.438220690510528,36.36748420072287,243.2611246188573,249.6535742516584,8.520992179316432,20090121.4311652,16.4941957478126,JFc,7042,0,253,,,,,
"  196P/Tichy",.4313134844133996,2.15048672993287,19.37778697740428,24.36812233729123,11.59882874227125,5.412508596990408,20001003.3411378,7.35366695349617,JFc,5507,0,237,,,,,
"  197P/LINEAR",.6296602371558928,1.061393390939032,25.5427252545893,66.3882461525948,188.7289004473067,4.670604614286352,20130324.8263090,4.85201633878229,JFc,3778,0,325,,-1.328260898895337E-10,1.674677306319436E-11,7.16543582490778E-11,
"  198P/ODAS",.4476934446732534,1.979105961156612,1.349844954561039,358.7439031395492,69.06461559637235,5.18758776017996,20050503.0372523,6.78330704554125,JFc,7315,2,200,,,1.07900907355782E-8,-2.155662307336122E-8,
"  199P/Shoemaker 4",.5069284376022202,2.936142672111689,24.76767471270187,92.94703569264837,191.9393427947523,8.97345786470852,20090410.0439395,14.5314516481435,JFc,5671,0,630,,,,,
"  200P/Larsen",.3332444293860415,3.272221902359723,12.1210582408734,234.8196348909933,133.690307828843,6.543134868777898,20080824.9932684,10.8723229433603,JFc,8082,0,604,,,,,
"  201P/LONEOS",.6128695185722387,1.339187971234099,7.033343643613875,35.23519856058019,25.0673844327545,5.579347434684292,20150114.6168501,6.43405042848456,JFc,4997,0,846,,,,,
"  202P/Scotti",.3303012468486478,2.526534750978659,2.185415874415965,194.586952891798,255.6483570963257,5.018752556455408,20090207.5004625,7.32785523103363,JFc,31889,0,414,,-2.567141149854931E-9,1.832462403461843E-10,,
"  203P/Korlevic",.3156537343648901,3.18232631190607,2.974791705255605,290.559980033758,154.5936527883389,6.11801321417493,20100208.4612583,10.0279327803771,JFc,7470,0,1023,,1.608005527959606E-7,2.501968112064596E-8,,
"  204P/LINEAR-NEAT",.4705293233791104,1.940225472834664,6.581224664404781,109.1066822496268,355.0404917170418,5.388699653736225,20081209.2748786,7.01493475573888,JFc,5315,2,1239,,1.080712377703343E-9,-2.05507690784695E-10,,
"  205P/Giacobini",.5686950644375306,1.527121245200829,15.30550506709045,179.6179218543356,154.2642271848786,5.554278104933172,20080910.0691278,6.66257082826544,JFc,2680,1,524,,,5.834321372386439E-9,,
"  205P/Giacobini-A",.568714327637854,1.526450001972009,15.30462698794076,179.6299185991975,154.219453037641,5.552152881409961,20080910.0428953,6.65862461283462,JFc,163,4,1143,,1.379092974617826E-8,-1.715887567924681E-8,,
"  205P/Giacobini-B",.5753279137768729,1.530213038690974,15.40528193605396,179.5073325093614,154.0793970125158,5.676349805126287,20080909.7638931,6.83999014591284,JFc,19,9,66,,7.838648189527286E-6,-2.395403737244474E-7,,
"  205P/Giacobini-C",0.5687302569766289339625,1.5266815023710049725735,15.308543661944190361623,179.6270623155098,154.2717704299316,5.553256411512614,20080910.2539860,6.66050843501621,JFc,40927,3,66,,6.25202759905467E-9,2.271900440689285E-10,,
"  206P/Barnard-Boattini",.6886420878908622,.9788121331531039,31.97414822324667,205.260324700398,179.5749493037745,5.308563874237445,19970626.8054613,5.57400506462474,JFc,42447,2,278,,,,,
"  207P/NEAT",.757031518894085,.9437429707482262,10.1500529330324,200.6727229123889,271.2038116059287,6.824696511217579,20081106.3838885,7.65532951247586,JFc,3149,0,143,,,,,
"  208P/McMillan",.3743976029670311,2.527632155924294,4.41402848939559,36.39967666437411,310.6418246413388,5.553002342639141,20080513.6106256,8.12140939820752,JFc,5944,0,218,,,,,
"  209P/LINEAR",.6920214125125672,.9028409771273824,20.61911890702222,63.60831693350104,152.1306549514883,4.960170373713515,20140423.2245184,5.01931337549497,JFc,5743,0,2794,,,,,
"  210P/Christensen",.8316968548421141,.5344475889680668,10.21716794655259,93.87242261853319,345.766023620465,5.816563718238333,20081219.9808962,5.65884160234454,JFc,6256,0,717,,-2.05617514420794E-10,5.655361521862536E-11,-1.14374450399871E-10,
"  211P/Hill",.3383819983698705,2.356905503021389,18.8790788406648,117.2669288612731,4.262434031254962,4.767766126874775,20090507.8426486,6.72373344652051,JFc,2733,1,660,,,,,
"  212P/NEAT",.5788465760830377,1.654448993646897,22.39795934058236,98.92885056048631,15.05140142791056,6.202302962728508,20081203.2743518,7.78623975238946,JFc,5963,0,124,,,,,
"  213P/Van Ness",.4074580950997326,1.983346037750145,10.37780533630779,311.3167687277543,5.554605392988465,4.711019445426841,20170924.3687245,6.12388938720299,JFc,597,4,353,,-2.602317031597013E-9,-7.229276065110103E-10,1.924544451509525E-8,
"  213P/Van Ness-B",.3797273022751771,2.122728532462212,10.24005100770656,312.6706695170379,3.341503759615148,4.721772411230579,20110616.4297495,6.33105214171125,JFc,77,5,115,,,,,
